GSAT0206 (GALILEO 10)   
1 40890U 15045B   26061.69895769  .00000010  00000+0  00000+0 0  9999
2 40890  54.9811 224.5416 0003832  50.0037 309.9714  1.70473640 65226
NAVSTAR 75 (USA 265)    
1 41019U 15062A   26063.57615744 -.00000079  00000+0  00000+0 0  9990
2 41019  56.8930  34.8413 0111453 231.4983 127.4850  2.00567082 75735
GSAT-15                 
1 41028U 15065A   26063.83378066 -.00000267  00000+0  00000+0 0  9994
2 41028   0.0886 269.9580 0000953  96.3755 189.8745  1.00270872 37751
GSAT0209 (GALILEO 12)   
1 41174U 15079A   26063.04029836  .00000013  00000+0  00000+0 0  9990
2 41174  55.7590 104.1453 0004747 323.4357  36.6173  1.70474529 62987
GSAT0208 (GALILEO 11)   
1 41175U 15079B   26062.08735472  .00000015  00000+0  00000+0 0  9996
2 41175  55.7569 104.1685 0004163 323.7694  36.2890  1.70474318 63383
IRNSS-1E                
1 41241U 16003A   26062.89409245 -.00000293  00000+0  00000+0 0  9992
2 41241  33.0059  61.2659 0017752 189.2049 344.8575  1.00274986 37023
NAVSTAR 76 (USA 266)    
1 41328U 16007A   26063.16294155  .00000012  00000+0  00000+0 0  9993
2 41328  55.4554  93.6223 0095428 245.9980 113.0677  2.00556769 73733
COSMOS 2514 [GLONASS-M] 
1 41330U 16008A   26063.64023447 -.00000052  00000+0  00000+0 0  9999
2 41330  65.0825 316.5971 0009131 209.2721 150.7376  2.13102631 78393
IRNSS-1F                
1 41384U 16015A   26063.74256449  .00000149  00000+0  00000+0 0  9993
2 41384   5.0851  99.2627 0019170 188.0583 174.8954  1.00271425 36624
BEIDOU-2 IGSO-6         
1 41434U 16021A   26063.86672000 -.00000150  00000+0  00000+0 0  9997
2 41434  60.0872  39.0732 0059807 233.4204 297.8613  1.00278464 36436
IRNSS-1G                
1 41469U 16027A   26063.62344865 -.00000344  00000+0  00000+0 0  9995
2 41469   4.9357 100.0077 0005294 314.0535 102.2828  1.00268597 36134
GSAT0211 (GALILEO 14)   
1 41549U 16030A   26061.62472216  .00000011  00000+0  00000+0 0  9998
2 41549  55.1322 224.6224 0003631  25.7212 334.2388  1.70473766 60858
GSAT0210 (GALILEO 13)   
1 41550U 16030B   26061.29541970  .00000012  00000+0  00000+0 0  9998
2 41550  55.1304 224.6297 0001173 192.8511 167.0898  1.70473885 60846
BEIDOU-2 G7             
1 41586U 16037A   26063.84770705 -.00000362  00000+0  00000+0 0  9996
2 41586   1.4627  68.2080 0007621 341.9955 168.0550  1.00267262  5840
EUTELSAT 117 WEST B     
1 41589U 16038B   26063.36225455 -.00000023  00000+0  00000+0 0  9998
2 41589   0.0384 342.0206 0000210 243.2130 310.2920  1.00271881 35619
GSAT0207 (GALILEO 15)   
1 41859U 16069A   26059.22748061  .00000008  00000+0  00000+0 0  9997
2 41859  55.4267 104.1007 0005031 309.1503  50.8842  1.70474383 57546
GSAT0212 (GALILEO 16)   
1 41860U 16069B   26062.01395955  .00000014  00000+0  00000+0 0  9997
2 41860  55.4261 104.0186 0003622 335.7588  24.3106  1.70474657 57847
